CTC1_L_00234016-03
1 16655U 22922VS  26070.40834491  .00000000  00000+0  00000-0 0  9997
2 16655  70.0000 180.0000 0000000   0.0000   0.0000 12.65579349    13
CTC1_L_00234016-04
1 16656U 24220XA  26070.40834491  .00000000  00000+0  00000-0 0  9991
2 16656  70.0000 180.0000 0000000   0.0000  90.0000 12.65579349    13
CTC1_L_00234017-01
1 16657U 23752WB  26070.40834491  .00000000  00000+0  00000-0 0  9991
2 16657  70.0000 192.0000 0000000   0.0000 192.0000 12.65579349    10
CTC1_L_00234017-02
1 16658U 24981PU  26070.40834491  .00000000  00000+0  00000-0 0  9997
2 16658  70.0000 192.0000 0000000   0.0000 282.0000 12.65579349    11
CTC1_L_00234017-03
1 16659U 23143E   26070.40834491  .00000000  00000+0  00000-0 0  9997
2 16659  70.0000 192.0000 0000000   0.0000  12.0000 12.65579349    13
CTC1_L_00234017-04
1 16660U 26543EK  26070.40834491  .00000000  00000+0  00000-0 0  9996
2 16660  70.0000 192.0000 0000000   0.0000 102.0000 12.65579349    15
CTC1_L_00234018-01
1 16661U 23429BQ  26070.40834491  .00000000  00000+0  00000-0 0  9997
2 16661  70.0000 204.0000 0000000   0.0000 204.0000 12.65579349    13
CTC1_L_00234018-02
1 16662U 23867AI  26070.40834491  .00000000  00000+0  00000-0 0  9994
2 16662  70.0000 204.0000 0000000   0.0000 294.0000 12.65579349    13
CTC1_L_00234018-03
1 16663U 22120ND  26070.40834491  .00000000  00000+0  00000-0 0  9996
2 16663  70.0000 204.0000 0000000   0.0000  24.0000 12.65579349    15
CTC1_L_00234018-04
1 16664U 22296IY  26070.40834491  .00000000  00000+0  00000-0 0  9991
2 16664  70.0000 204.0000 0000000   0.0000 114.0000 12.65579349    16
CTC1_L_00234019-01
1 16665U 23269NF  26070.40834491  .00000000  00000+0  00000-0 0  9993
2 16665  70.0000 216.0000 0000000   0.0000 216.0000 12.65579349    13
CTC1_L_00234019-02
1 16666U 26750DW  26070.40834491  .00000000  00000+0  00000-0 0  9992
2 16666  70.0000 216.0000 0000000   0.0000 306.0000 12.65579349    14
CTC1_L_00234019-03
1 16667U 26196SY  26070.40834491  .00000000  00000+0  00000-0 0  9997
2 16667  70.0000 216.0000 0000000   0.0000  36.0000 12.65579349    15
CTC1_L_00234019-04
1 16668U 25589ON  26070.40834491  .00000000  00000+0  00000-0 0  9993
2 16668  70.0000 216.0000 0000000   0.0000 126.0000 12.65579349    16
CTC1_L_00234020-01
1 16669U 23846PJ  26070.40834491  .00000000  00000+0  00000-0 0  9998
2 16669  70.0000 228.0000 0000000   0.0000 228.0000 12.65579349    13
CTC1_L_00234020-02
1 16670U 26567VQ  26070.40834491  .00000000  00000+0  00000-0 0  9993
2 16670  70.0000 228.0000 0000000   0.0000 318.0000 12.65579349    15
CTC1_L_00234020-03
1 16671U 22213E   26070.40834491  .00000000  00000+0  00000-0 0  9998
2 16671  70.0000 228.0000 0000000   0.0000  48.0000 12.65579349    16
CTC1_L_00234020-04
1 16672U 22415QM  26070.40834491  .00000000  00000+0  00000-0 0  9993
2 16672  70.0000 228.0000 0000000   0.0000 138.0000 12.65579349    17
CTC1_L_00234021-01
1 16673U 22716KG  26070.40834491  .00000000  00000+0  00000-0 0  9998
2 16673  70.0000 240.0000 0000000   0.0000 240.0000 12.65579349    16
CTC1_L_00234021-02
1 16674U 22230SU  26070.40834491  .00000000  00000+0  00000-0 0  9990
2 16674  70.0000 240.0000 0000000   0.0000 330.0000 12.65579349    17
CTC1_L_00234021-03
1 16675U 26931ZQ  26070.40834491  .00000000  00000+0  00000-0 0  9993
2 16675  70.0000 240.0000 0000000   0.0000  60.0000 12.65579349    18
CTC1_L_00234021-04
1 16676U 23349ZR  26070.40834491  .00000000  00000+0  00000-0 0  9994
2 16676  70.0000 240.0000 0000000   0.0000 150.0000 12.65579349    19
CTC1_L_00234022-01
1 16677U 22577YI  26070.40834491  .00000000  00000+0  00000-0 0  9997
2 16677  70.0000 252.0000 0000000   0.0000 252.0000 12.65579349    16
CTC1_L_00234022-02
1 16678U 24948LX  26070.40834491  .00000000  00000+0  00000-0 0  9992
2 16678  70.0000 252.0000 0000000   0.0000 342.0000 12.65579349    17
CTC1_L_00234022-03
1 16679U 25694QB  26070.40834491  .00000000  00000+0  00000-0 0  9992
2 16679  70.0000 252.0000 0000000   0.0000  72.0000 12.65579349    18
CTC1_L_00234022-04
1 16680U 25393KG  26070.40834491  .00000000  00000+0  00000-0 0  9990
2 16680  70.0000 252.0000 0000000   0.0000 162.0000 12.65579349    10
CTC1_L_00234023-01
1 16681U 24791KX  26070.40834491  .00000000  00000+0  00000-0 0  9992
2 16681  70.0000 264.0000 0000000   0.0000 264.0000 12.65579349    17
CTC1_L_00234023-02
1 16682U 23694IW  26070.40834491  .00000000  00000+0  00000-0 0  9994
2 16682  70.0000 264.0000 0000000   0.0000 354.0000 12.65579349    18
CTC1_L_00234023-03
1 16683U 23460FX  26070.40834491  .00000000  00000+0  00000-0 0  9996
2 16683  70.0000 264.0000 0000000   0.0000  84.0000 12.65579349    19
CTC1_L_00234023-04
1 16684U 26290YD  26070.40834491  .00000000  00000+0  00000-0 0  9991
2 16684  70.0000 264.0000 0000000   0.0000 174.0000 12.65579349    10
CTC1_L_00234024-01
1 16685U 25755TW  26070.40834491  .00000000  00000+0  00000-0 0  9997
2 16685  70.0000 276.0000 0000000   0.0000 276.0000 12.65579349    17
CTC1_L_00234024-02
1 16686U 23762QY  26070.40834491  .00000000  00000+0  00000-0 0  9994
2 16686  70.0000 276.0000 0000000   0.0000   6.0000 12.65579349    19
CTC1_L_00234024-03
1 16687U 25632DG  26070.40834491  .00000000  00000+0  00000-0 0  9993
2 16687  70.0000 276.0000 0000000   0.0000  96.0000 12.65579349    19
CTC1_L_00234024-04
1 16688U 25444MF  26070.40834491  .00000000  00000+0  00000-0 0  9995
2 16688  70.0000 276.0000 0000000   0.0000 186.0000 12.65579349    10
CTC1_L_00234025-01
1 16689U 22921JV  26070.40834491  .00000000  00000+0  00000-0 0  9993
2 16689  70.0000 288.0000 0000000   0.0000 288.0000 12.65579349    17
CTC1_L_00234025-02
1 16690U 23402EB  26070.40834491  .00000000  00000+0  00000-0 0  9990
2 16690  70.0000 288.0000 0000000   0.0000  18.0000 12.65579349    10
CTC1_L_00234025-03
1 16691U 26838OW  26070.40834491  .00000000  00000+0  00000-0 0  9997
2 16691  70.0000 288.0000 0000000   0.0000 108.0000 12.65579349    11
CTC1_L_00234025-04
1 16692U 26706EZ  26070.40834491  .00000000  00000+0  00000-0 0  9992
2 16692  70.0000 288.0000 0000000   0.0000 198.0000 12.65579349    11
CTC1_L_00234026-01
1 16693U 26382YO  26070.40834491  .00000000  00000+0  00000-0 0  9993
2 16693  70.0000 300.0000 0000000   0.0000 300.0000 12.65579349    12
CTC1_L_00234026-02
1 16694U 23484YM  26070.40834491  .00000000  00000+0  00000-0 0  9994
2 16694  70.0000 300.0000 0000000   0.0000  30.0000 12.65579349    13
CTC1_L_00234026-03
1 16695U 24006QU  26070.40834491  .00000000  00000+0  00000-0 0  9996
2 16695  70.0000 300.0000 0000000   0.0000 120.0000 12.65579349    14
CTC1_L_00234026-04
1 16696U 22243TG  26070.40834491  .00000000  00000+0  00000-0 0  9998
2 16696  70.0000 300.0000 0000000   0.0000 210.0000 12.65579349    15
CTC1_L_00234027-01
1 16697U 24694UV  26070.40834491  .00000000  00000+0  00000-0 0  9991
2 16697  70.0000 312.0000 0000000   0.0000 312.0000 12.65579349    12
CTC1_L_00234027-02
1 16698U 25481XE  26070.40834491  .00000000  00000+0  00000-0 0  9997
2 16698  70.0000 312.0000 0000000   0.0000  42.0000 12.65579349    13
CTC1_L_00234027-03
1 16699U 26049XM  26070.40834491  .00000000  00000+0  00000-0 0  9999
2 16699  70.0000 312.0000 0000000   0.0000 132.0000 12.65579349    14
CTC1_L_00234027-04
1 16700U 23855JD  26070.40834491  .00000000  00000+0  00000-0 0  9994
2 16700  70.0000 312.0000 0000000   0.0000 222.0000 12.65579349    17
CTC1_L_00234028-01
1 16701U 24856TA  26070.40834491  .00000000  00000+0  00000-0 0  9997
2 16701  70.0000 324.0000 0000000   0.0000 324.0000 12.65579349    14
CTC1_L_00234028-02
1 16702U 22171LL  26070.40834491  .00000000  00000+0  00000-0 0  9996
2 16702  70.0000 324.0000 0000000   0.0000  54.0000 12.65579349    15
CTC1_L_00234028-03
1 16703U 23468AI  26070.40834491  .00000000  00000+0  00000-0 0  9997
2 16703  70.0000 324.0000 0000000   0.0000 144.0000 12.65579349    16
CTC1_L_00234028-04
1 16704U 22894WW  26070.40834491  .00000000  00000+0  00000-0 0  9990
2 16704  70.0000 324.0000 0000000   0.0000 234.0000 12.65579349    17
CTC1_L_00234029-01
1 16705U 22673RQ  26070.40834491  .00000000  00000+0  00000-0 0  9996
2 16705  70.0000 336.0000 0000000   0.0000 336.0000 12.65579349    14
CTC1_L_00234029-02
1 16706U 22553QR  26070.40834491  .00000000  00000+0  00000-0 0  9994
2 16706  70.0000 336.0000 0000000   0.0000  66.0000 12.65579349    15
CTC1_L_00234029-03
1 16707U 26497TU  26070.40834491  .00000000  00000+0  00000-0 0  9996
2 16707  70.0000 336.0000 0000000   0.0000 156.0000 12.65579349    16
CTC1_L_00234029-04
1 16708U 26670ZO  26070.40834491  .00000000  00000+0  00000-0 0  9990
2 16708  70.0000 336.0000 0000000   0.0000 246.0000 12.65579349    17
CTC1_L_00234030-01
1 16709U 22224JU  26070.40834491  .00000000  00000+0  00000-0 0  9992
2 16709  70.0000 348.0000 0000000   0.0000 348.0000 12.65579349    14
CTC1_L_00234030-02
1 16710U 25301MA  26070.40834491  .00000000  00000+0  00000-0 0  9993
2 16710  70.0000 348.0000 0000000   0.0000  78.0000 12.65579349    16
CTC1_L_00234030-03
1 16711U 22982DM  26070.40834491  .00000000  00000+0  00000-0 0  9996
2 16711  70.0000 348.0000 0000000   0.0000 168.0000 12.65579349    17
CTC1_L_00234030-04
1 16712U 24907TA  26070.40834491  .00000000  00000+0  00000-0 0  9996
2 16712  70.0000 348.0000 0000000   0.0000 258.0000 12.65579349    18
